NORAD_CAT_ID,OBJECT_NAME,OBJECT_TYPE,EPOCH,MEAN_MOTION,ECCENTRICITY,INCLINATION,RA_OF_ASC_NODE,ARG_OF_PERICENTER,MEAN_ANOMALY,BSTAR,MEAN_MOTION_DOT,MEAN_MOTION_DDOT,TLE_LINE0,TLE_LINE1,TLE_LINE2,SEMIMAJOR_AXIS,PERIOD,APOGEE,PERIGEE,DECAYED
53783.0,STARLINK-4536,PAYLOAD,2023-10-12 15:49:59,15.08844064,0.0001417,53.2154,260.1582,94.4471,265.6683,0.00053665,8.264e-05,0.0,0 STARLINK-4536,1 53783U 22111L   23285.65971223  .00008264  00000-0  53665-3 0  9996,2 53783  53.2154 260.1582 0001417  94.4471 265.6683 15.08844064 60994,6917.868,95.437,540.713,538.753,0.0
53783.0,STARLINK-4536,PAYLOAD,2023-10-13 04:33:03,15.08858203,0.000139,53.2156,257.7781,94.9408,265.1743,0.0017411,0.00027544,0.0,0 STARLINK-4536,1 53783U 22111L   23286.18962942  .00027544  00000-0  17411-2 0  9993,2 53783  53.2156 257.7781 0001390  94.9408 265.1743 15.08858203 60266,6917.825,95.436,540.651,538.728,0.0
53783.0,STARLINK-4536,PAYLOAD,2023-10-13 07:43:50,15.0886487,0.0001428,53.2156,257.1834,94.4885,265.627,0.0020237,0.00032088,0.0,0 STARLINK-4536,1 53783U 22111L   23286.32210808  .00032088  00000-0  20237-2 0  9995,2 53783  53.2156 257.1834 0001428  94.4885 265.6270 15.08864870 61094,6917.804,95.436,540.657,538.682,0.0
53783.0,STARLINK-4536,PAYLOAD,2023-10-14 04:23:50,15.08864686,0.00015,53.2161,253.3161,110.7629,249.3524,0.0017482,0.00027663,0.0,0 STARLINK-4536,1 53783U 22111L   23287.18322587  .00027663  00000-0  17482-2 0  9999,2 53783  53.2161 253.3161 0001500 110.7629 249.3524 15.08864686 60411,6917.805,95.436,540.708,538.632,0.0
53783.0,STARLINK-4536,PAYLOAD,2023-10-14 21:53:05,15.08837199,0.0002151,53.2167,250.0447,135.3365,224.78,0.0015992,0.00025253,0.0,0 STARLINK-4536,1 53783U 22111L   23287.91187010  .00025253  00000-0  15992-2 0  9997,2 53783  53.2167 250.0447 0002151 135.3365 224.7800 15.08837199 61336,6917.889,95.438,541.242,538.266,0.0
53783.0,STARLINK-4536,PAYLOAD,2023-10-15 02:39:15,15.08836682,0.0001565,53.2172,249.1492,113.9162,246.1994,0.00074334,0.00011561,0.0,0 STARLINK-4536,1 53783U 22111L   23288.11059225  .00011561  00000-0  74334-3 0  9999,2 53783  53.2172 249.1492 0001565 113.9162 246.1994 15.08836682 60557,6917.891,95.438,540.838,538.673,0.0
53783.0,STARLINK-4536,PAYLOAD,2023-10-15 07:25:24,15.0882947,0.0001469,53.2168,248.2602,112.6145,247.5002,0.00041893,6.384e-05,0.0,0 STARLINK-4536,1 53783U 22111L   23288.30931536  .00006384  00000-0  41893-3 0  9995,2 53783  53.2168 248.2602 0001469 112.6145 247.5002 15.08829470 60580,6917.913,95.438,540.794,538.761,0.0
53783.0,STARLINK-4536,PAYLOAD,2023-10-16 07:16:11,15.088544,0.0001273,53.2174,243.8016,92.0081,268.1057,0.00068529,0.0001064,0.0,0 STARLINK-4536,1 53783U 22111L   23289.30291315  .00010640  00000-0  68529-3 0  9995,2 53783  53.2174 243.8016 0001273  92.0081 268.1057 15.08854400 60737,6917.836,95.437,540.582,538.821,0.0
53783.0,STARLINK-4536,PAYLOAD,2023-10-16 21:34:40,15.08843973,0.0001184,53.2171,241.1251,93.9112,266.2015,0.00024566,3.624e-05,0.0,0 STARLINK-4536,1 53783U 22111L   23289.89907561  .00003624  00000-0  24566-3 0  9993,2 53783  53.2171 241.1251 0001184  93.9112 266.2015 15.08843973 61638,6917.868,95.437,540.552,538.914,0.0
53783.0,STARLINK-4536,PAYLOAD,2023-10-17 13:28:31,15.08848742,0.0001254,53.2173,238.1528,87.4001,272.7134,0.00034925,5.276e-05,0.0,0 STARLINK-4536,1 53783U 22111L   23290.56147455  .00005276  00000-0  34925-3 0  9992,2 53783  53.2173 238.1528 0001254  87.4001 272.7134 15.08848742 61730,6917.854,95.437,540.586,538.851,0.0
53783.0,STARLINK-4536,PAYLOAD,2023-10-18 02:11:36,15.0884101,0.0001603,53.2163,235.7756,96.2323,263.8852,0.00016281,2.304e-05,0.0,0 STARLINK-4536,1 53783U 22111L   23291.09139962  .00002304  00000-0  16281-3 0  9999,2 53783  53.2163 235.7756 0001603  96.2323 263.8852 15.08841010 61816,6917.877,95.437,540.851,538.633,0.0
53783.0,STARLINK-4536,PAYLOAD,2023-10-18 05:22:23,15.08845349,0.0001687,53.216,235.181,96.6606,263.4578,0.00030921,4.637e-05,0.0,0 STARLINK-4536,1 53783U 22111L   23291.22387796  .00004637  00000-0  30921-3 0  9992,2 53783  53.2160 235.1810 0001687  96.6606 263.4578 15.08845349 61021,6917.864,95.437,540.896,538.562,0.0
53783.0,STARLINK-4536,PAYLOAD,2023-10-19 03:37:46,15.08859367,0.0001615,53.2162,231.0168,93.3135,266.8042,0.00073955,0.00011508,0.0,0 STARLINK-4536,1 53783U 22111L   23292.15123466  .00011508  00000-0  73955-3 0  9996,2 53783  53.2162 231.0168 0001615  93.3135 266.8042 15.08859367 61978,6917.821,95.436,540.803,538.569,0.0
53783.0,STARLINK-4536,PAYLOAD,2023-10-19 19:31:38,15.08850747,0.0001584,53.2166,228.0427,102.3589,257.758,0.00031266,4.693e-05,0.0,0 STARLINK-4536,1 53783U 22111L   23292.81363434  .00004693  00000-0  31266-3 0  9996,2 53783  53.2166 228.0427 0001584 102.3589 257.7580 15.08850747 61266,6917.848,95.437,540.808,538.617,0.0
53783.0,STARLINK-4536,PAYLOAD,2023-10-20 03:28:33,15.08855098,0.000165,53.2164,226.5565,91.4108,268.7073,0.0005095,7.833e-05,0.0,0 STARLINK-4536,1 53783U 22111L   23293.14483222  .00007833  00000-0  50950-3 0  9991,2 53783  53.2164 226.5565 0001650  91.4108 268.7073 15.08855098 62128,6917.834,95.437,540.841,538.558,0.0
53783.0,STARLINK-4536,PAYLOAD,2023-10-20 19:22:25,15.0883764,0.0001614,53.216,223.5837,93.9636,266.1541,0.00011389,1.525e-05,0.0,0 STARLINK-4536,1 53783U 22111L   23293.80723762  .00001525  00000-0  11389-3 0  9995,2 53783  53.2160 223.5837 0001614  93.9636 266.1541 15.08837640 61412,6917.888,95.438,540.869,538.636,0.0
53783.0,STARLINK-4536,PAYLOAD,2023-10-21 12:51:40,15.08838495,0.0001576,53.2173,220.3113,99.0312,261.0858,0.00038955,5.917e-05,0.0,0 STARLINK-4536,1 53783U 22111L   23294.53588268  .00005917  00000-0  38955-3 0  9993,2 53783  53.2173 220.3113 0001576  99.0312 261.0858 15.08838495 62339,6917.885,95.438,540.84,538.66,0.0
53783.0,STARLINK-4536,PAYLOAD,2023-10-21 22:23:58,15.08855912,0.0001319,53.2158,218.5281,84.7602,275.3541,0.00082452,0.00012864,0.0,0 STARLINK-4536,1 53783U 22111L   23294.93331612  .00012864  00000-0  82452-3 0  9996,2 53783  53.2158 218.5281 0001319  84.7602 275.3541 15.08855912 62391,6917.832,95.437,540.609,538.784,0.0
53783.0,STARLINK-4536,PAYLOAD,2023-10-22 01:34:44,15.08868814,0.0001404,53.2162,217.9323,92.1321,267.9832,0.0014884,0.00023498,0.0,0 STARLINK-4536,1 53783U 22111L   23295.06579437  .00023498  00000-0  14884-2 0  9998,2 53783  53.2162 217.9323 0001404  92.1321 267.9832 15.08868814 61600,6917.792,95.436,540.629,538.686,0.0
53783.0,STARLINK-4536,PAYLOAD,2023-10-22 22:14:45,15.08845908,0.0001249,53.2154,214.0661,106.943,253.1699,0.00045146,6.906e-05,0.0,0 STARLINK-4536,1 53783U 22111L   23295.92691868  .00006906  00000-0  45146-3 0  9997,2 53783  53.2154 214.0661 0001249 106.9430 253.1699 15.08845908 62547,6917.862,95.437,540.591,538.863,0.0
53783.0,STARLINK-4536,PAYLOAD,2023-10-23 01:25:32,15.08830053,0.0001287,53.2168,213.4718,106.0033,254.1101,-9.5835e-05,-1.812e-05,0.0,0 STARLINK-4536,1 53783U 22111L   23296.05940006 -.00001812  00000-0 -95835-4 0  9997,2 53783  53.2168 213.4718 0001287 106.0033 254.1101 15.08830053 61756,6917.911,95.438,540.666,538.885,0.0
53783.0,STARLINK-4536,PAYLOAD,2023-10-23 22:05:33,15.08833893,0.0001332,53.217,209.6063,111.2421,248.8714,0.00030832,4.622e-05,0.0,0 STARLINK-4536,1 53783U 22111L   23296.92052800  .00004622  00000-0  30832-3 0  9994,2 53783  53.2170 209.6063 0001332 111.2421 248.8714 15.08833893 62698,6917.899,95.438,540.686,538.843,0.0
53783.0,STARLINK-4536,PAYLOAD,2023-10-24 04:27:05,15.08841231,0.0001319,53.2174,208.4196,108.0923,252.0212,0.00043834,6.695e-05,0.0,0 STARLINK-4536,1 53783U 22111L   23297.18548481  .00006695  00000-0  43834-3 0  9996,2 53783  53.2174 208.4196 0001319 108.0923 252.0212 15.08841231 61922,6917.877,95.437,540.654,538.829,0.0
53783.0,STARLINK-4536,PAYLOAD,2023-10-24 10:48:39,15.08815095,0.0001808,53.2177,207.2273,105.3559,254.7633,0.00020052,2.903e-05,0.0,0 STARLINK-4536,1 53783U 22111L   23297.45045795  .00002903  00000-0  20052-3 0  9991,2 53783  53.2177 207.2273 0001808 105.3559 254.7633 15.08815095 61965,6917.957,95.439,541.072,538.571,0.0
53783.0,STARLINK-4536,PAYLOAD,2023-10-25 21:47:09,15.08841334,0.0001047,53.2169,200.6861,125.0618,235.0472,0.00061257,9.475e-05,0.0,0 STARLINK-4536,1 53783U 22111L   23298.90774445  .00009475  00000-0  61257-3 0  9996,2 53783  53.2169 200.6861 0001047 125.0618 235.0472 15.08841334 62189,6917.876,95.437,540.466,539.017,0.0
53783.0,STARLINK-4536,PAYLOAD,2023-10-26 02:33:18,15.0885883,0.0001529,53.2171,199.7932,115.6472,244.4679,0.0010258,0.00016084,0.0,0 STARLINK-4536,1 53783U 22111L   23299.10646165  .00016084  00000-0  10258-2 0  9994,2 53783  53.2171 199.7932 0001529 115.6472 244.4679 15.08858830 62213,6917.823,95.436,540.746,538.63,0.0
53783.0,STARLINK-4536,PAYLOAD,2023-10-26 21:37:54,15.08876167,0.0001376,53.2167,196.2244,124.9128,235.1994,0.00050002,7.687e-05,0.0,0 STARLINK-4536,1 53783U 22111L   23299.90132433  .00007687  00000-0  50002-3 0  9991,2 53783  53.2167 196.2244 0001376 124.9128 235.1994 15.08876167 63140,6917.77,95.435,540.587,538.683,0.0
53783.0,STARLINK-4536,PAYLOAD,2023-10-27 02:24:03,15.0889776,0.0001208,53.2157,195.3346,122.3988,237.7121,0.0013239,0.00020878,0.0,0 STARLINK-4536,1 53783U 22111L   23300.10003708  .00020878  00000-0  13239-2 0  9995,2 53783  53.2157 195.3346 0001208 122.3988 237.7121 15.08897760 63177,6917.704,95.434,540.405,538.733,0.0
53783.0,STARLINK-4536,PAYLOAD,2023-10-27 23:04:04,15.08843918,0.0001736,53.2169,191.4674,107.6278,252.4904,0.00069798,0.00010839,0.0,0 STARLINK-4536,1 53783U 22111L   23300.96116255  .00010839  00000-0  69798-3 0  9999,2 53783  53.2169 191.4674 0001736 107.6278 252.4904 15.08843918 63309,6917.868,95.437,540.934,538.532,0.0
53783.0,STARLINK-4536,PAYLOAD,2023-10-28 00:39:27,15.08844527,0.0001297,53.2172,191.1729,100.5364,259.5774,9.4953e-05,1.224e-05,0.0,0 STARLINK-4536,1 53783U 22111L   23301.02740219  .00001224  00000-0  94953-4 0  9990,2 53783  53.2172 191.1729 0001297 100.5364 259.5774 15.08844527 62502,6917.867,95.437,540.629,538.834,0.0
